start=new Date('2022-08-04T00:00:00.000Z').valueOf();
sats=[{"GP_ID":"209490912","CLASSIFICATION_TYPE":"U","TLE_LINE1":"1 44932U 20001U   22215.18104651  .00000112  00000-0  26409-4 0  9992","OBJECT_TYPE":"PAYLOAD","TLE_LINE2":"2 44932  53.0553 127.6781 0001791  76.0193 284.0995 15.06394194142951","CENTER_NAME":"EARTH","PERIAPSIS":"545.991","OBJECT_NAME":"STARLINK-1130","RCS_SIZE":"LARGE","SEMIMAJOR_AXIS":"6925.366","PERIOD":"95.593","MEAN_ELEMENT_THEORY":"SGP4","SITE":"AFETR","NORAD_CAT_ID":"44932","APOAPSIS":"548.472","TIME_SYSTEM":"UTC","MEAN_MOTION":"15.06394194","FILE":"3528364","ELEMENT_SET_NO":"999","OBJECT_ID":"2020-001U","REV_AT_EPOCH":"14295","RA_OF_ASC_NODE":"127.6781","MEAN_MOTION_DDOT":"0.0000000000000","DECAY_DATE":null,"BSTAR":"0.00002640900000","MEAN_ANOMALY":"284.0995","COUNTRY_CODE":"US","ARG_OF_PERICENTER":"76.0193","LAUNCH_DATE":"2020-01-07","EPOCH":"2022-08-03T04:20:42.418464","ECCENTRICITY":"0.00017910","EPHEMERIS_TYPE":"0","INCLINATION":"53.0553","REF_FRAME":"TEME","MEAN_MOTION_DOT":"0.00000112"},{"GP_ID":"209491162","OBJECT_TYPE":"PAYLOAD","CLASSIFICATION_TYPE":"U","TLE_LINE1":"1 44933U 20001V   22215.14050115 -.00000166  00000-0  77744-5 0  9993","OBJECT_NAME":"STARLINK-1144","TLE_LINE2":"2 44933  53.0556 127.8738 0001606  65.6494 294.4662 15.06393997143005","PERIAPSIS":"546.120","CENTER_NAME":"EARTH","RCS_SIZE":"LARGE","SEMIMAJOR_AXIS":"6925.367","PERIOD":"95.593","NORAD_CAT_ID":"44933","SITE":"AFETR","MEAN_ELEMENT_THEORY":"SGP4","OBJECT_ID":"2020-001V","FILE":"3528364","ELEMENT_SET_NO":"999","APOAPSIS":"548.344","MEAN_MOTION":"15.06393997","TIME_SYSTEM":"UTC","REV_AT_EPOCH":"14300","RA_OF_ASC_NODE":"127.8738","MEAN_MOTION_DDOT":"0.0000000000000","DECAY_DATE":null,"BSTAR":"0.00000777440000","COUNTRY_CODE":"US","MEAN_ANOMALY":"294.4662","ARG_OF_PERICENTER":"65.6494","EPOCH":"2022-08-03T03:22:19.299360","LAUNCH_DATE":"2020-01-07","ECCENTRICITY":"0.00016060","REF_FRAME":"TEME","MEAN_MOTION_DOT":"-0.00000166","EPHEMERIS_TYPE":"0","INCLINATION":"53.0556"},{"ARG_OF_PERICENTER":"86.0179","EPOCH":"2022-08-03T10:03:03.507840","LAUNCH_DATE":"2020-01-07","ECCENTRICITY":"0.00014590","REF_FRAME":"TEME","MEAN_MOTION_DOT":"0.00000231","INCLINATION":"53.0558","EPHEMERIS_TYPE":"0","REV_AT_EPOCH":"14203","RA_OF_ASC_NODE":"106.6237","MEAN_MOTION_DDOT":"0.0000000000000","BSTAR":"0.00003439700000","DECAY_DATE":null,"COUNTRY_CODE":"US","MEAN_ANOMALY":"274.0977","PERIOD":"95.593","SEMIMAJOR_AXIS":"6925.378","NORAD_CAT_ID":"44934","SITE":"AFETR","MEAN_ELEMENT_THEORY":"SGP4","ELEMENT_SET_NO":"999","FILE":"3528364","OBJECT_ID":"2020-001W","APOAPSIS":"548.253","TIME_SYSTEM":"UTC","MEAN_MOTION":"15.06390453","GP_ID":"209491413","OBJECT_TYPE":"PAYLOAD","CLASSIFICATION_TYPE":"U","TLE_LINE1":"1 44934U 20001W   22215.41879060  .00000231  00000-0  34397-4 0  9990","OBJECT_NAME":"STARLINK-1071","TLE_LINE2":"2 44934  53.0558 106.6237 0001459  86.0179 274.0977 15.06390453142039","CENTER_NAME":"EARTH","PERIAPSIS":"546.232","RCS_SIZE":"LARGE"},{"RCS_SIZE":"LARGE","OBJECT_NAME":"STARLINK-1079","TLE_LINE2":"2 44937  53.0555 106.7170 0001662  79.9856 280.1321 15.06403110142031","CENTER_NAME":"EARTH","PERIAPSIS":"546.053","OBJECT_TYPE":"PAYLOAD","CLASSIFICATION_TYPE":"U","TLE_LINE1":"1 44937U 20001Z   22215.39666833  .00000031  00000-0  20952-4 0  9992","GP_ID":"209492110","FILE":"3528364","OBJECT_ID":"2020-001Z","ELEMENT_SET_NO":"999","MEAN_MOTION":"15.06403110","APOAPSIS":"548.355","TIME_SYSTEM":"UTC","SITE":"AFETR","NORAD_CAT_ID":"44937","MEAN_ELEMENT_THEORY":"SGP4","PERIOD":"95.592","SEMIMAJOR_AXIS":"6925.339","COUNTRY_CODE":"US","MEAN_ANOMALY":"280.1321","MEAN_MOTION_DDOT":"0.0000000000000","BSTAR":"0.00002095200000","DECAY_DATE":null,"REV_AT_EPOCH":"14203","RA_OF_ASC_NODE":"106.7170","REF_FRAME":"TEME","MEAN_MOTION_DOT":"0.00000031","EPHEMERIS_TYPE":"0","INCLINATION":"53.0555","ECCENTRICITY":"0.00016620","EPOCH":"2022-08-03T09:31:12.143712","LAUNCH_DATE":"2020-01-07","ARG_OF_PERICENTER":"79.9856"},{"MEAN_MOTION_DOT":"0.00002951","REF_FRAME":"TEME","EPHEMERIS_TYPE":"0","INCLINATION":"53.0556","ECCENTRICITY":"0.00017570","EPOCH":"2022-08-03T10:18:59.651712","LAUNCH_DATE":"2020-01-07","ARG_OF_PERICENTER":"73.9056","COUNTRY_CODE":"US","MEAN_ANOMALY":"286.2126","BSTAR":"0.00021693000000","DECAY_DATE":null,"MEAN_MOTION_DDOT":"0.0000000000000","REV_AT_EPOCH":"14203","RA_OF_ASC_NODE":"106.5696","FILE":"3528364","ELEMENT_SET_NO":"999","OBJECT_ID":"2020-001AA","APOAPSIS":"548.439","MEAN_MOTION":"15.06397219","TIME_SYSTEM":"UTC","SITE":"AFETR","NORAD_CAT_ID":"44938","MEAN_ELEMENT_THEORY":"SGP4","SEMIMAJOR_AXIS":"6925.357","PERIOD":"95.592","RCS_SIZE":"LARGE","OBJECT_NAME":"STARLINK-1082","PERIAPSIS":"546.005","CENTER_NAME":"EARTH","TLE_LINE2":"2 44938  53.0556 106.5696 0001757  73.9056 286.2126 15.06397219142037","OBJECT_TYPE":"PAYLOAD","TLE_LINE1":"1 44938U 20001AA  22215.42985708  .00002951  00000-0  21693-3 0  9997","CLASSIFICATION_TYPE":"U","GP_ID":"209490412"},{"ARG_OF_PERICENTER":"81.5782","EPOCH":"2022-08-03T02:31:52.552704","LAUNCH_DATE":"2020-01-07","ECCENTRICITY":"0.00016720","REF_FRAME":"TEME","MEAN_MOTION_DOT":"-0.00002808","EPHEMERIS_TYPE":"0","INCLINATION":"53.0551","RA_OF_ASC_NODE":"108.0172","REV_AT_EPOCH":"14198","MEAN_MOTION_DDOT":"0.0000000000000","DECAY_DATE":null,"BSTAR":"-0.00016959000000","COUNTRY_CODE":"US","MEAN_ANOMALY":"278.5396","SEMIMAJOR_AXIS":"6925.280","PERIOD":"95.591","SITE":"AFETR","NORAD_CAT_ID":"44939","MEAN_ELEMENT_THEORY":"SGP4","FILE":"3528364","ELEMENT_SET_NO":"999","OBJECT_ID":"2020-001AB","MEAN_MOTION":"15.06422517","APOAPSIS":"548.302","TIME_SYSTEM":"UTC","GP_ID":"209490662","OBJECT_TYPE":"PAYLOAD","CLASSIFICATION_TYPE":"U","TLE_LINE1":"1 44939U 20001AB  22215.10546936 -.00002808  00000-0 -16959-3 0  9991","OBJECT_NAME":"STARLINK-1083","TLE_LINE2":"2 44939  53.0551 108.0172 0001672  81.5782 278.5396 15.06422517141982","PERIAPSIS":"545.987","CENTER_NAME":"EARTH","RCS_SIZE":"LARGE"},{"PERIAPSIS":"545.973","CENTER_NAME":"EARTH","TLE_LINE2":"2 44940  53.0557 106.1876 0001843  69.9609 290.1578 15.06388368142043","OBJECT_NAME":"STARLINK-1091","RCS_SIZE":"LARGE","GP_ID":"209491913","TLE_LINE1":"1 44940U 20001AC  22215.51462543 -.00000762  00000-0 -32279-4 0  9990","CLASSIFICATION_TYPE":"U","OBJECT_TYPE":"PAYLOAD","MEAN_ELEMENT_THEORY":"SGP4","SITE":"AFETR","NORAD_CAT_ID":"44940","APOAPSIS":"548.526","TIME_SYSTEM":"UTC","MEAN_MOTION":"15.06388368","FILE":"3528364","ELEMENT_SET_NO":"999","OBJECT_ID":"2020-001AC","PERIOD":"95.593","SEMIMAJOR_AXIS":"6925.384","MEAN_ANOMALY":"290.1578","COUNTRY_CODE":"US","RA_OF_ASC_NODE":"106.1876","REV_AT_EPOCH":"14204","BSTAR":"-0.00003227900000","DECAY_DATE":null,"MEAN_MOTION_DDOT":"0.0000000000000","ECCENTRICITY":"0.00018430","EPHEMERIS_TYPE":"0","INCLINATION":"53.0557","MEAN_MOTION_DOT":"-0.00000762","REF_FRAME":"TEME","ARG_OF_PERICENTER":"69.9609","LAUNCH_DATE":"2020-01-07","EPOCH":"2022-08-03T12:21:03.637152"},{"ARG_OF_PERICENTER":"70.3446","LAUNCH_DATE":"2020-01-07","EPOCH":"2022-08-03T09:41:49.695360","ECCENTRICITY":"0.00019140","EPHEMERIS_TYPE":"0","INCLINATION":"53.0563","MEAN_MOTION_DOT":"0.00000012","REF_FRAME":"TEME","REV_AT_EPOCH":"14203","RA_OF_ASC_NODE":"106.6876","DECAY_DATE":null,"BSTAR":"0.00001971700000","MEAN_MOTION_DDOT":"0.0000000000000","MEAN_ANOMALY":"289.7750","COUNTRY_CODE":"US","SEMIMAJOR_AXIS":"6925.379","PERIOD":"95.593","MEAN_ELEMENT_THEORY":"SGP4","NORAD_CAT_ID":"44941","SITE":"AFETR","APOAPSIS":"548.570","TIME_SYSTEM":"UTC","MEAN_MOTION":"15.06390022","FILE":"3528364","ELEMENT_SET_NO":"999","OBJECT_ID":"2020-001AD","GP_ID":"209491612","TLE_LINE1":"1 44941U 20001AD  22215.40404740  .00000012  00000-0  19717-4 0  9992","CLASSIFICATION_TYPE":"U","OBJECT_TYPE":"PAYLOAD","PERIAPSIS":"545.919","CENTER_NAME":"EARTH","TLE_LINE2":"2 44941  53.0563 106.6876 0001914  70.3446 289.7750 15.06390022142035","OBJECT_NAME":"STARLINK-1094","RCS_SIZE":"LARGE"},{"RCS_SIZE":"LARGE","OBJECT_NAME":"STARLINK-1096","PERIAPSIS":"539.968","CENTER_NAME":"EARTH","TLE_LINE2":"2 44942  53.0541 106.0548 0001785  55.9066 304.2093 15.08363143142045","OBJECT_TYPE":"PAYLOAD","TLE_LINE1":"1 44942U 20001AE  22215.39110843  .00007472  00000-0  49332-3 0  9991","CLASSIFICATION_TYPE":"U","GP_ID":"209470330","ELEMENT_SET_NO":"999","FILE":"3528291","OBJECT_ID":"2020-001AE","APOAPSIS":"542.438","MEAN_MOTION":"15.08363143","TIME_SYSTEM":"UTC","NORAD_CAT_ID":"44942","SITE":"AFETR","MEAN_ELEMENT_THEORY":"SGP4","SEMIMAJOR_AXIS":"6919.338","PERIOD":"95.468","COUNTRY_CODE":"US","MEAN_ANOMALY":"304.2093","DECAY_DATE":null,"BSTAR":"0.00049332000000","MEAN_MOTION_DDOT":"0.0000000000000","RA_OF_ASC_NODE":"106.0548","REV_AT_EPOCH":"14204","MEAN_MOTION_DOT":"0.00007472","REF_FRAME":"TEME","EPHEMERIS_TYPE":"0","INCLINATION":"53.0541","ECCENTRICITY":"0.00017850","EPOCH":"2022-08-03T09:23:11.768352","LAUNCH_DATE":"2020-01-07","ARG_OF_PERICENTER":"55.9066"},{"RCS_SIZE":"LARGE","CENTER_NAME":"EARTH","PERIAPSIS":"546.055","TLE_LINE2":"2 44943  53.0551 106.2545 0001641  80.6126 279.5048 15.06407247142045","OBJECT_NAME":"STARLINK-1100","TLE_LINE1":"1 44943U 20001AF  22215.49986933  .00001695  00000-0  13265-3 0  9991","CLASSIFICATION_TYPE":"U","OBJECT_TYPE":"PAYLOAD","GP_ID":"209491163","MEAN_MOTION":"15.06407247","APOAPSIS":"548.328","TIME_SYSTEM":"UTC","FILE":"3528364","OBJECT_ID":"2020-001AF","ELEMENT_SET_NO":"999","MEAN_ELEMENT_THEORY":"SGP4","SITE":"AFETR","NORAD_CAT_ID":"44943","SEMIMAJOR_AXIS":"6925.326","PERIOD":"95.592","MEAN_ANOMALY":"279.5048","COUNTRY_CODE":"US","DECAY_DATE":null,"BSTAR":"0.00013265000000","MEAN_MOTION_DDOT":"0.0000000000000","RA_OF_ASC_NODE":"106.2545","REV_AT_EPOCH":"14204","EPHEMERIS_TYPE":"0","INCLINATION":"53.0551","MEAN_MOTION_DOT":"0.00001695","REF_FRAME":"TEME","ECCENTRICITY":"0.00016410","LAUNCH_DATE":"2020-01-07","EPOCH":"2022-08-03T11:59:48.710112","ARG_OF_PERICENTER":"80.6126"}];
